0 METEOR 2-8 DEB
1 36354U 82025AQ  13283.24618181  .00001793  00000-0  11350-2 0  2531
2 36354 082.5150 103.8457 0016192 035.5974 324.6299 14.03451151533498
0 METEOR 2-8 DEB
1 36354U 82025AQ  13285.81274578  .00001790  00000-0  11331-2 0  2541
2 36354 082.5156 101.7315 0016251 028.4703 331.7320 14.03460197533855
0 METEOR 2-8 DEB
1 36354U 82025AQ  13287.16731536  .00001828  00000-0  11575-2 0  2556
2 36354 082.5169 100.6184 0016241 021.1572 339.0769 14.03466591534048
0 METEOR 2-8 DEB
1 36354U 82025AQ  13290.16159510  .00001883  00000-0  11917-2 0  2568
2 36354 082.5176 098.1543 0016989 012.0110 348.1927 14.03479391534467
0 METEOR 2-8 DEB
1 36354U 82025AQ  13291.15967585  .00001927  00000-0  12198-2 0  2579
2 36354 082.5156 097.3278 0017999 007.5897 352.5840 14.03484540534605
0 METEOR 2-8 DEB
1 36354U 82025AQ  13293.15583945  .00002012  00000-0  12744-2 0  2589
2 36354 082.5157 095.6756 0014658 012.6633 347.6081 14.03495425534888
0 METEOR 2-8 DEB
1 36354U 82025AQ  13295.15197068  .00002082  00000-0  13185-2 0  2596
2 36354 082.5145 094.0276 0014514 006.4985 353.6972 14.03505723535168
0 METEOR 2-8 DEB
1 36354U 82025AQ  13296.15003010  .00002177  00000-0  13797-2 0  2606
2 36354 082.5173 093.2029 0012078 012.1666 348.0539 14.03512762535303
